BEIJING 1               
1 28890U 05043A   26087.61129008  .00000765  00000+0  15697-3 0  9997
2 28890  98.2761 220.4352 0014728 168.9333 191.2195 14.63478692 88863
HUANJING 1A (HJ-1A)     
1 33320U 08041A   26087.85510559  .00001733  00000+0  21480-3 0  9996
2 33320  97.6653  76.8292 0020331  45.5103 314.7770 14.83782207946493
HUANJING 1B (HJ-1B)     
1 33321U 08041B   26087.85652029  .00001105  00000+0  14014-3 0  9994
2 33321  97.6500  80.2393 0038030  87.0150 273.5415 14.83150558946502
YAOGAN-4                
1 33446U 08061A   26087.54457812  .00001361  00000+0  17374-3 0  9999
2 33446  97.9263  21.6811 0013833 339.2934  20.7717 14.83032228933718
DEIMOS-1                
1 35681U 09041A   26087.60552227  .00000741  00000+0  11682-3 0  9991
2 35681  97.7294 248.3709 0002733  89.5289 270.6234 14.75143719895000
UK-DMC 2                
1 35683U 09041C   26087.61935524  .00001542  00000+0  23172-3 0  9996
2 35683  97.8686 224.6213 0001407  99.9431 260.1938 14.75893814894682
DMC3-FM1                
1 40715U 15032A   26087.58719765  .00000844  00000+0  10340-3 0  9995
2 40715  97.6586 315.8726 0004819 334.2081  25.8893 14.85642093577944
DMC3-FM2                
1 40716U 15032B   26087.60948392  .00001113  00000+0  13444-3 0  9997
2 40716  97.6640 317.4128 0005518 339.5819  20.5176 14.85647001577944
DMC3-FM3                
1 40717U 15032C   26087.63257075 -.00000088  00000+0 -42677-5 0  9996
2 40717  97.6694 319.1357 0004769 340.8683  19.2353 14.85642426577957
