[{"OBJECT_NAME":"BEIJING 1","OBJECT_ID":"2005-043A","EPOCH":"2026-03-28T14:40:15.462912","MEAN_MOTION":14.63478692,"ECCENTRICITY":0.00147282,"INCLINATION":98.2761,"RA_OF_ASC_NODE":220.4352,"ARG_OF_PERICENTER":168.9333,"MEAN_ANOMALY":191.2195,"EPHEMERIS_TYPE":0,"CLASSIFICATION_TYPE":"U","NORAD_CAT_ID":28890,"ELEMENT_SET_NO":999,"REV_AT_EPOCH":8886,"BSTAR":0.00015696847,"MEAN_MOTION_DOT":7.65e-6,"MEAN_MOTION_DDOT":0},{"OBJECT_NAME":"HUANJING 1A (HJ-1A)","OBJECT_ID":"2008-041A","EPOCH":"2026-03-28T20:31:21.122976","MEAN_MOTION":14.83782207,"ECCENTRICITY":0.0020331,"INCLINATION":97.6653,"RA_OF_ASC_NODE":76.8292,"ARG_OF_PERICENTER":45.5103,"MEAN_ANOMALY":314.777,"EPHEMERIS_TYPE":0,"CLASSIFICATION_TYPE":"U","NORAD_CAT_ID":33320,"ELEMENT_SET_NO":999,"REV_AT_EPOCH":94649,"BSTAR":0.0002148,"MEAN_MOTION_DOT":1.733e-5,"MEAN_MOTION_DDOT":0},{"OBJECT_NAME":"HUANJING 1B (HJ-1B)","OBJECT_ID":"2008-041B","EPOCH":"2026-03-28T20:33:23.353056","MEAN_MOTION":14.83150558,"ECCENTRICITY":0.003803,"INCLINATION":97.65,"RA_OF_ASC_NODE":80.2393,"ARG_OF_PERICENTER":87.015,"MEAN_ANOMALY":273.5415,"EPHEMERIS_TYPE":0,"CLASSIFICATION_TYPE":"U","NORAD_CAT_ID":33321,"ELEMENT_SET_NO":999,"REV_AT_EPOCH":94650,"BSTAR":0.00014014,"MEAN_MOTION_DOT":1.105e-5,"MEAN_MOTION_DDOT":0},{"OBJECT_NAME":"YAOGAN-4","OBJECT_ID":"2008-061A","EPOCH":"2026-03-28T13:04:11.549568","MEAN_MOTION":14.83032228,"ECCENTRICITY":0.00138332,"INCLINATION":97.9263,"RA_OF_ASC_NODE":21.6811,"ARG_OF_PERICENTER":339.2934,"MEAN_ANOMALY":20.7717,"EPHEMERIS_TYPE":0,"CLASSIFICATION_TYPE":"U","NORAD_CAT_ID":33446,"ELEMENT_SET_NO":999,"REV_AT_EPOCH":93371,"BSTAR":0.00017373748,"MEAN_MOTION_DOT":1.361e-5,"MEAN_MOTION_DDOT":0},{"OBJECT_NAME":"DEIMOS-1","OBJECT_ID":"2009-041A","EPOCH":"2026-03-28T14:31:57.124128","MEAN_MOTION":14.75143719,"ECCENTRICITY":0.0002733,"INCLINATION":97.7294,"RA_OF_ASC_NODE":248.3709,"ARG_OF_PERICENTER":89.5289,"MEAN_ANOMALY":270.6234,"EPHEMERIS_TYPE":0,"CLASSIFICATION_TYPE":"U","NORAD_CAT_ID":35681,"ELEMENT_SET_NO":999,"REV_AT_EPOCH":89500,"BSTAR":0.00011681939,"MEAN_MOTION_DOT":7.41e-6,"MEAN_MOTION_DDOT":0},{"OBJECT_NAME":"UK-DMC 2","OBJECT_ID":"2009-041C","EPOCH":"2026-03-28T14:51:52.292736","MEAN_MOTION":14.75893814,"ECCENTRICITY":0.00014078,"INCLINATION":97.8686,"RA_OF_ASC_NODE":224.6213,"ARG_OF_PERICENTER":99.9431,"MEAN_ANOMALY":260.1938,"EPHEMERIS_TYPE":0,"CLASSIFICATION_TYPE":"U","NORAD_CAT_ID":35683,"ELEMENT_SET_NO":999,"REV_AT_EPOCH":89468,"BSTAR":0.00023171981,"MEAN_MOTION_DOT":1.542e-5,"MEAN_MOTION_DDOT":0},{"OBJECT_NAME":"DMC3-FM1","OBJECT_ID":"2015-032A","EPOCH":"2026-03-28T14:05:33.876960","MEAN_MOTION":14.85642093,"ECCENTRICITY":0.0004819,"INCLINATION":97.6586,"RA_OF_ASC_NODE":315.8726,"ARG_OF_PERICENTER":334.2081,"MEAN_ANOMALY":25.8893,"EPHEMERIS_TYPE":0,"CLASSIFICATION_TYPE":"U","NORAD_CAT_ID":40715,"ELEMENT_SET_NO":999,"REV_AT_EPOCH":57794,"BSTAR":0.00010340457,"MEAN_MOTION_DOT":8.44e-6,"MEAN_MOTION_DDOT":0},{"OBJECT_NAME":"DMC3-FM2","OBJECT_ID":"2015-032B","EPOCH":"2026-03-28T14:37:39.410688","MEAN_MOTION":14.85647001,"ECCENTRICITY":0.00055187,"INCLINATION":97.664,"RA_OF_ASC_NODE":317.4128,"ARG_OF_PERICENTER":339.5819,"MEAN_ANOMALY":20.5176,"EPHEMERIS_TYPE":0,"CLASSIFICATION_TYPE":"U","NORAD_CAT_ID":40716,"ELEMENT_SET_NO":999,"REV_AT_EPOCH":57794,"BSTAR":0.00013443926,"MEAN_MOTION_DOT":1.113e-5,"MEAN_MOTION_DDOT":0},{"OBJECT_NAME":"DMC3-FM3","OBJECT_ID":"2015-032C","EPOCH":"2026-03-28T15:10:54.112800","MEAN_MOTION":14.85642426,"ECCENTRICITY":0.00047693,"INCLINATION":97.6694,"RA_OF_ASC_NODE":319.1357,"ARG_OF_PERICENTER":340.8683,"MEAN_ANOMALY":19.2353,"EPHEMERIS_TYPE":0,"CLASSIFICATION_TYPE":"U","NORAD_CAT_ID":40717,"ELEMENT_SET_NO":999,"REV_AT_EPOCH":57795,"BSTAR":-4.267688e-6,"MEAN_MOTION_DOT":-8.8e-7,"MEAN_MOTION_DDOT":0}]
